start=new Date('2023-05-28T00:00:00.000Z').valueOf();
sats=[{"GP_ID":"232631269","ARG_OF_PERICENTER":"96.0880","PERIOD":"95.592","TIME_SYSTEM":"UTC","COUNTRY_CODE":"US","OBJECT_ID":"2020-062BC","PERIAPSIS":"546.505","BSTAR":"0.00002362100000","MEAN_MOTION_DDOT":"0.0000000000000","DECAY_DATE":null,"INCLINATION":"53.0532","RA_OF_ASC_NODE":"216.1779","LAUNCH_DATE":"2020-09-03","MEAN_MOTION_DOT":"0.00000071","ELEMENT_SET_NO":"999","APOAPSIS":"547.906","MEAN_ANOMALY":"264.0224","REV_AT_EPOCH":"15168","EPHEMERIS_TYPE":"0","CLASSIFICATION_TYPE":"U","OBJECT_TYPE":"PAYLOAD","RCS_SIZE":"LARGE","FILE":"3918755","MEAN_MOTION":"15.06402658","REF_FRAME":"TEME","OBJECT_NAME":"STARLINK-1724","ECCENTRICITY":"0.00010110","CENTER_NAME":"EARTH","TLE_LINE1":"1 46375U 20062BC  23147.89759917  .00000071  00000-0  23621-4 0  9993","SITE":"AFETR","TLE_LINE2":"2 46375  53.0532 216.1779 0001011  96.0880 264.0224 15.06402658151680","NORAD_CAT_ID":"46375","EPOCH":"2023-05-27T21:32:32.568288","SEMIMAJOR_AXIS":"6925.340","MEAN_ELEMENT_THEORY":"SGP4"},{"REF_FRAME":"TEME","FILE":"3918755","MEAN_MOTION":"15.06404441","ECCENTRICITY":"0.00010110","CENTER_NAME":"EARTH","TLE_LINE1":"1 46376U 20062BD  23147.91234643  .00002002  00000-0  15321-3 0  9994","OBJECT_NAME":"STARLINK-1742","RCS_SIZE":"LARGE","NORAD_CAT_ID":"46376","EPOCH":"2023-05-27T21:53:46.731552","SEMIMAJOR_AXIS":"6925.335","TLE_LINE2":"2 46376  53.0536 216.0992 0001011  88.8477 271.2627 15.06404441151681","MEAN_ELEMENT_THEORY":"SGP4","SITE":"AFETR","PERIAPSIS":"546.500","OBJECT_ID":"2020-062BD","MEAN_MOTION_DDOT":"0.0000000000000","DECAY_DATE":null,"BSTAR":"0.00015321000000","GP_ID":"232632019","ARG_OF_PERICENTER":"88.8477","PERIOD":"95.592","COUNTRY_CODE":"US","TIME_SYSTEM":"UTC","CLASSIFICATION_TYPE":"U","EPHEMERIS_TYPE":"0","OBJECT_TYPE":"PAYLOAD","RA_OF_ASC_NODE":"216.0992","INCLINATION":"53.0536","MEAN_ANOMALY":"271.2627","REV_AT_EPOCH":"15168","ELEMENT_SET_NO":"999","LAUNCH_DATE":"2020-09-03","MEAN_MOTION_DOT":"0.00002002","APOAPSIS":"547.900"},{"COUNTRY_CODE":"US","TIME_SYSTEM":"UTC","ARG_OF_PERICENTER":"92.0669","PERIOD":"95.593","GP_ID":"232630268","DECAY_DATE":null,"MEAN_MOTION_DDOT":"0.0000000000000","BSTAR":"0.00013095000000","PERIAPSIS":"546.520","OBJECT_ID":"2020-062BH","REV_AT_EPOCH":"15130","MEAN_ANOMALY":"268.0439","APOAPSIS":"547.962","LAUNCH_DATE":"2020-09-03","MEAN_MOTION_DOT":"0.00001669","ELEMENT_SET_NO":"999","INCLINATION":"53.0532","RA_OF_ASC_NODE":"242.1511","OBJECT_TYPE":"PAYLOAD","CLASSIFICATION_TYPE":"U","EPHEMERIS_TYPE":"0","RCS_SIZE":"LARGE","TLE_LINE1":"1 46380U 20062BH  23147.67966581  .00001669  00000-0  13095-3 0  9999","CENTER_NAME":"EARTH","ECCENTRICITY":"0.00010410","OBJECT_NAME":"STARLINK-1758","REF_FRAME":"TEME","FILE":"3918755","MEAN_MOTION":"15.06390951","SITE":"AFETR","MEAN_ELEMENT_THEORY":"SGP4","EPOCH":"2023-05-27T16:18:43.125984","SEMIMAJOR_AXIS":"6925.376","NORAD_CAT_ID":"46380","TLE_LINE2":"2 46380  53.0532 242.1511 0001041  92.0669 268.0439 15.06390951151306"},{"RCS_SIZE":"LARGE","OBJECT_NAME":"STARLINK-1769","CENTER_NAME":"EARTH","ECCENTRICITY":"0.00010250","TLE_LINE1":"1 46382U 20062BK  23147.92708472  .00003881  00000-0  27926-3 0  9998","MEAN_MOTION":"15.06406542","FILE":"3918755","REF_FRAME":"TEME","SITE":"AFETR","MEAN_ELEMENT_THEORY":"SGP4","TLE_LINE2":"2 46382  53.0532 216.0420 0001025  90.4855 269.6252 15.06406542151694","NORAD_CAT_ID":"46382","EPOCH":"2023-05-27T22:15:00.119808","SEMIMAJOR_AXIS":"6925.329","TIME_SYSTEM":"UTC","COUNTRY_CODE":"US","GP_ID":"232630518","ARG_OF_PERICENTER":"90.4855","PERIOD":"95.592","BSTAR":"0.00027926000000","MEAN_MOTION_DDOT":"0.0000000000000","DECAY_DATE":null,"OBJECT_ID":"2020-062BK","PERIAPSIS":"546.484","LAUNCH_DATE":"2020-09-03","ELEMENT_SET_NO":"999","MEAN_MOTION_DOT":"0.00003881","APOAPSIS":"547.903","MEAN_ANOMALY":"269.6252","REV_AT_EPOCH":"15169","RA_OF_ASC_NODE":"216.0420","INCLINATION":"53.0532","OBJECT_TYPE":"PAYLOAD","EPHEMERIS_TYPE":"0","CLASSIFICATION_TYPE":"U"},{"MEAN_ELEMENT_THEORY":"SGP4","SEMIMAJOR_AXIS":"6925.391","EPOCH":"2023-05-27T13:58:03.944640","NORAD_CAT_ID":"46383","TLE_LINE2":"2 46383  53.0523 262.5912 0001078  97.2257 262.8854 15.06386288151008","SITE":"AFETR","TLE_LINE1":"1 46383U 20062BL  23147.58199010 -.00006687  00000-0 -43060-3 0  9999","CENTER_NAME":"EARTH","ECCENTRICITY":"0.00010780","OBJECT_NAME":"STARLINK-1770","REF_FRAME":"TEME","MEAN_MOTION":"15.06386288","FILE":"3918755","RCS_SIZE":"LARGE","OBJECT_TYPE":"PAYLOAD","CLASSIFICATION_TYPE":"U","EPHEMERIS_TYPE":"0","REV_AT_EPOCH":"15100","MEAN_ANOMALY":"262.8854","APOAPSIS":"548.002","LAUNCH_DATE":"2020-09-03","MEAN_MOTION_DOT":"-0.00006687","ELEMENT_SET_NO":"999","RA_OF_ASC_NODE":"262.5912","INCLINATION":"53.0523","DECAY_DATE":null,"MEAN_MOTION_DDOT":"0.0000000000000","BSTAR":"-0.00043060000000","PERIAPSIS":"546.509","OBJECT_ID":"2020-062BL","COUNTRY_CODE":"US","TIME_SYSTEM":"UTC","ARG_OF_PERICENTER":"97.2257","PERIOD":"95.593","GP_ID":"232631769"},{"OBJECT_ID":"2020-062BM","PERIAPSIS":"546.524","BSTAR":"-0.00012934000000","MEAN_MOTION_DDOT":"0.0000000000000","DECAY_DATE":null,"GP_ID":"232631520","ARG_OF_PERICENTER":"91.4725","PERIOD":"95.593","TIME_SYSTEM":"UTC","COUNTRY_CODE":"US","EPHEMERIS_TYPE":"0","CLASSIFICATION_TYPE":"U","OBJECT_TYPE":"PAYLOAD","RA_OF_ASC_NODE":"262.5779","INCLINATION":"53.0521","LAUNCH_DATE":"2020-09-03","ELEMENT_SET_NO":"999","MEAN_MOTION_DOT":"-0.00002207","APOAPSIS":"547.944","MEAN_ANOMALY":"268.6381","REV_AT_EPOCH":"15100","MEAN_MOTION":"15.06393393","FILE":"3918755","REF_FRAME":"TEME","OBJECT_NAME":"STARLINK-1771","CENTER_NAME":"EARTH","ECCENTRICITY":"0.00010250","TLE_LINE1":"1 46384U 20062BM  23147.58567802 -.00002207  00000-0 -12934-3 0  9998","RCS_SIZE":"LARGE","TLE_LINE2":"2 46384  53.0521 262.5779 0001025  91.4725 268.6381 15.06393393151000","NORAD_CAT_ID":"46384","SEMIMAJOR_AXIS":"6925.369","EPOCH":"2023-05-27T14:03:22.580928","MEAN_ELEMENT_THEORY":"SGP4","SITE":"AFETR"},{"SITE":"AFETR","MEAN_ELEMENT_THEORY":"SGP4","NORAD_CAT_ID":"46532","EPOCH":"2023-05-27T22:01:04.695744","SEMIMAJOR_AXIS":"6925.367","TLE_LINE2":"2 46532  53.0547  61.0804 0001113 116.4093 243.7010 15.06394131146253","RCS_SIZE":"LARGE","CENTER_NAME":"EARTH","ECCENTRICITY":"0.00011130","TLE_LINE1":"1 46532U 20070A   23147.91741546  .00002701  00000-0  20015-3 0  9994","OBJECT_NAME":"STARLINK-1644","REF_FRAME":"TEME","MEAN_MOTION":"15.06394131","FILE":"3918755","MEAN_ANOMALY":"243.7010","REV_AT_EPOCH":"14625","MEAN_MOTION_DOT":"0.00002701","LAUNCH_DATE":"2020-10-06","ELEMENT_SET_NO":"999","APOAPSIS":"548.002","INCLINATION":"53.0547","RA_OF_ASC_NODE":"61.0804","OBJECT_TYPE":"PAYLOAD","CLASSIFICATION_TYPE":"U","EPHEMERIS_TYPE":"0","COUNTRY_CODE":"US","TIME_SYSTEM":"UTC","GP_ID":"232630281","PERIOD":"95.593","ARG_OF_PERICENTER":"116.4093","MEAN_MOTION_DDOT":"0.0000000000000","DECAY_DATE":null,"BSTAR":"0.00020015000000","PERIAPSIS":"546.461","OBJECT_ID":"2020-070A"},{"OBJECT_TYPE":"PAYLOAD","CLASSIFICATION_TYPE":"U","EPHEMERIS_TYPE":"0","REV_AT_EPOCH":"14625","MEAN_ANOMALY":"268.8218","APOAPSIS":"548.063","ELEMENT_SET_NO":"999","LAUNCH_DATE":"2020-10-06","MEAN_MOTION_DOT":"-0.00006826","RA_OF_ASC_NODE":"61.0400","INCLINATION":"53.0548","DECAY_DATE":null,"MEAN_MOTION_DDOT":"0.0000000000000","BSTAR":"-0.00043996000000","PERIAPSIS":"546.455","OBJECT_ID":"2020-070B","COUNTRY_CODE":"US","TIME_SYSTEM":"UTC","ARG_OF_PERICENTER":"91.2904","PERIOD":"95.593","GP_ID":"232630531","MEAN_ELEMENT_THEORY":"SGP4","SEMIMAJOR_AXIS":"6925.394","EPOCH":"2023-05-27T22:16:59.540160","NORAD_CAT_ID":"46533","TLE_LINE2":"2 46533  53.0548  61.0400 0001161  91.2904 268.8218 15.06385091146254","SITE":"AFETR","TLE_LINE1":"1 46533U 20070B   23147.92846690 -.00006826  00000-0 -43996-3 0  9999","CENTER_NAME":"EARTH","ECCENTRICITY":"0.00011610","OBJECT_NAME":"STARLINK-1648","REF_FRAME":"TEME","MEAN_MOTION":"15.06385091","FILE":"3918755","RCS_SIZE":"LARGE"},{"SITE":"AFETR","NORAD_CAT_ID":"46534","SEMIMAJOR_AXIS":"6925.360","EPOCH":"2023-05-27T21:50:27.422304","TLE_LINE2":"2 46534  53.0550  61.1228 0001311 106.2530 253.8603 15.06396126146259","MEAN_ELEMENT_THEORY":"SGP4","RCS_SIZE":"LARGE","REF_FRAME":"TEME","MEAN_MOTION":"15.06396126","FILE":"3918755","CENTER_NAME":"EARTH","ECCENTRICITY":"0.00013110","TLE_LINE1":"1 46534U 20070C   23147.91003961  .00003075  00000-0  22523-3 0  9999","OBJECT_NAME":"STARLINK-1659","INCLINATION":"53.0550","RA_OF_ASC_NODE":"61.1228","MEAN_ANOMALY":"253.8603","REV_AT_EPOCH":"14625","LAUNCH_DATE":"2020-10-06","ELEMENT_SET_NO":"999","MEAN_MOTION_DOT":"0.00003075","APOAPSIS":"548.133","CLASSIFICATION_TYPE":"U","EPHEMERIS_TYPE":"0","OBJECT_TYPE":"PAYLOAD","GP_ID":"232631782","ARG_OF_PERICENTER":"106.2530","PERIOD":"95.592","COUNTRY_CODE":"US","TIME_SYSTEM":"UTC","PERIAPSIS":"546.318","OBJECT_ID":"2020-070C","MEAN_MOTION_DDOT":"0.0000000000000","DECAY_DATE":null,"BSTAR":"0.00022523000000"},{"TIME_SYSTEM":"UTC","COUNTRY_CODE":"US","PERIOD":"95.592","ARG_OF_PERICENTER":"97.0442","GP_ID":"232631533","BSTAR":"0.00010550000000","DECAY_DATE":null,"MEAN_MOTION_DDOT":"0.0000000000000","OBJECT_ID":"2020-070D","PERIAPSIS":"545.743","APOAPSIS":"548.714","LAUNCH_DATE":"2020-10-06","MEAN_MOTION_DOT":"0.00001290","ELEMENT_SET_NO":"999","REV_AT_EPOCH":"14624","MEAN_ANOMALY":"263.0791","INCLINATION":"53.0536","RA_OF_ASC_NODE":"61.1651","OBJECT_TYPE":"PAYLOAD","EPHEMERIS_TYPE":"0","CLASSIFICATION_TYPE":"U","RCS_SIZE":"LARGE","OBJECT_NAME":"STARLINK-1663","TLE_LINE1":"1 46535U 20070D   23147.89898050  .00001290  00000-0  10550-3 0  9992","ECCENTRICITY":"0.00021450","CENTER_NAME":"EARTH","MEAN_MOTION":"15.06395049","FILE":"3918755","REF_FRAME":"TEME","SITE":"AFETR","MEAN_ELEMENT_THEORY":"SGP4","TLE_LINE2":"2 46535  53.0536  61.1651 0002145  97.0442 263.0791 15.06395049146242","EPOCH":"2023-05-27T21:34:31.915200","SEMIMAJOR_AXIS":"6925.364","NORAD_CAT_ID":"46535"}];
